STARLINK-4081           
1 52660U 22053E   22160.91667824 -.00713745  00000+0 -77950-2 0  9993
2 52660  53.2173 186.7180 0001296  45.9237  23.0868 15.64932193  1305
STARLINK-4042           
1 52661U 22053F   22160.91667824 -.00713726  00000+0 -77936-2 0  9997
2 52661  53.2173 186.7215 0001172  53.4207  16.2732 15.64936875  1304
STARLINK-4044           
1 52662U 22053G   22160.91667824 -.00713726  00000+0 -77905-2 0  9994
2 52662  53.2173 186.7300 0001261  47.2742  23.7864 15.64946139  1307
STARLINK-4037           
1 52663U 22053H   22160.91667824 -.00713681  00000+0 -77886-2 0  9993
2 52663  53.2173 186.7336 0001220  49.5964  22.1475 15.64950785  1306
STARLINK-4070           
1 52664U 22053J   22160.91667824 -.00713953  00000+0 -77946-2 0  9993
2 52664  53.2173 186.7258 0001256  47.8842  22.4930 15.64941655  1300
STARLINK-4064           
1 52665U 22053K   22160.91667824 -.00713488  00000+0 -77795-2 0  9999
2 52665  53.2173 186.7439 0001683  29.7027  44.7741 15.64969039  1303
STARLINK-4079           
1 52666U 22053L   22160.91667824 -.00713492  00000+0 -77839-2 0  9994
2 52666  53.2173 186.7377 0001665  30.7344  41.6927 15.64955242  1302
STARLINK-4076           
1 52667U 22053M   22160.91667824 -.00713650  00000+0 -77809-2 0  9998
2 52667  53.2173 186.7478 0001280  47.1941  27.9657 15.64973818  1309
STARLINK-4067           
1 52668U 22053N   22160.91667824 -.00713774  00000+0 -77867-2 0  9990
2 52668  53.2173 186.7416 0001260  48.2536  24.8567 15.64960108  1306
STARLINK-3972           
1 52669U 22053P   22160.91667824 -.00713731  00000+0 -77777-2 0  9994
2 52669  53.2173 186.7597 0001193  52.4325  24.7761 15.64987819  1308
STARLINK-4075           
1 52670U 22053Q   22160.91667824 -.00713619  00000+0 -77835-2 0  9996
2 52670  53.2173 186.7441 0001243  48.6000  25.1935 15.64964615  1308
STARLINK-4071           
1 52671U 22053R   22161.00001157 -.00717625  00000+0 -78615-2 0  9997
2 52671  53.2173 186.3564 0001322  61.7224 125.9147 15.64867269  3878
STARLINK-4073           
1 52672U 22053S   22160.91667824 -.00713698  00000+0 -77802-2 0  9999
2 52672  53.2173 186.7520 0001194  52.0673  23.7754 15.64978527  3850
STARLINK-3976           
1 52673U 22053T   22160.91667824 -.00713793  00000+0 -77740-2 0  9997
2 52673  53.2173 186.7713 0001223  51.5252  27.7317 15.65001804  3850
STARLINK-3936           
1 52674U 22053U   22160.91667824 -.00713701  00000+0 -77786-2 0  9997
2 52674  53.2173 186.7559 0001276  47.5875  28.9382 15.64983167  3858
STARLINK-3934           
1 52675U 22053V   22160.91667824  .00073502  00000+0  52474-3 0  9992
2 52675  53.2152 186.5573 0002550  22.0516 137.8978 15.73144807  3857
STARLINK-4006           
1 52676U 22053W   22160.91667824 -.00713772  00000+0 -77752-2 0  9990
2 52676  53.2173 186.7676 0001222  51.5576  27.0166 15.64997164  3856
STARLINK-4028           
1 52677U 22053X   22161.58334491 -.00041897  00000+0 -29477-3 0  9990
2 52677  53.2149 183.2577 0002797  17.2625 321.7285 15.73257715  3963
STARLINK-4074           
1 52678U 22053Y   22160.91667824  .00070940  00000+0  50682-3 0  9997
2 52678  53.2153 186.5593 0002690  18.2314 141.1003 15.73141257  3854
STARLINK-4031           
1 52679U 22053Z   22160.91667824 -.00007338  00000+0 -47858-4 0  9993
2 52679  53.2166 186.5515 0002518  20.3023 142.6804 15.73215947  3856
STARLINK-3774           
1 52680U 22053AA  22161.58334491 -.00040664  00000+0 -28598-3 0  9998
2 52680  53.2147 183.2588 0002722  13.4157 324.9925 15.73253333  3961
STARLINK-4068           
1 52681U 22053AB  22160.91667824  .00072154  00000+0  51506-3 0  9996
2 52681  53.2150 186.5491 0002994  14.5818 148.9495 15.73153310  3850
STARLINK-4017           
1 52682U 22053AC  22161.58334491 -.00068830  00000+0 -48844-3 0  9991
2 52682  53.2150 183.2567 0002807  14.6156 324.9983 15.73268490  3964
STARLINK-4039           
1 52683U 22053AD  22160.91667824  .00072887  00000+0  52055-3 0  9991
2 52683  53.2149 186.5469 0002664  24.8644 139.8521 15.73138558  3856
STARLINK-4014           
1 52684U 22053AE  22161.58334491 -.00003354  00000+0 -19443-4 0  9997
2 52684  53.2148 183.2547 0002897  17.9720 322.2825 15.73224401  3963
STARLINK-4029           
1 52685U 22053AF  22161.00001157  .00073797  00000+0  52680-3 0  9990
2 52685  53.2149 186.1304 0002414  22.5531 256.1537 15.73145502  3874
STARLINK-4005           
1 52686U 22053AG  22161.58334491 -.00018021  00000+0 -12392-3 0  9991
2 52686  53.2148 183.2514 0002910  21.3883 320.5714 15.73253605  3960
STARLINK-3981           
1 52687U 22053AH  22161.58334491 -.00016119  00000+0 -11036-3 0  9992
2 52687  53.2148 183.2442 0002898  18.6843 326.2709 15.73250379  3963
STARLINK-4032           
1 52688U 22053AJ  22161.58334491  .00050664  00000+0  36333-3 0  9991
2 52688  53.2147 183.2486 0002914  26.7749 316.4546 15.73189918  3965
STARLINK-4078           
1 52689U 22053AK  22161.58334491 -.00066932  00000+0 -47483-3 0  9997
2 52689  53.2162 183.2415 0002737  20.5321 326.2581 15.73264826  3966
STARLINK-4035           
1 52690U 22053AL  22161.58334491 -.00049625  00000+0 -35046-3 0  9991
2 52690  53.2161 183.2484 0002730  16.0883 327.7436 15.73246203  3963
STARLINK-3945           
1 52691U 22053AM  22161.58334491  .00053785  00000+0  38513-3 0  9994
2 52691  53.2164 183.2404 0002807  15.5158 331.8859 15.73200770  3967
STARLINK-3993           
1 52692U 22053AN  22161.58334491  .00050026  00000+0  35842-3 0  9992
2 52692  53.2167 183.2448 0002770  12.8706 332.6879 15.73218028  3963
STARLINK-3946           
1 52693U 22053AP  22161.58334491 -.00042767  00000+0 -30142-3 0  9996
2 52693  53.2165 183.2379 0002821  18.5536 330.1241 15.73226258  3966
STARLINK-4072           
1 52694U 22053AQ  22161.58334491 -.00051288  00000+0 -36237-3 0  9996
2 52694  53.2164 183.2435 0002890  18.3342 327.8715 15.73248949  3968
STARLINK-4041           
1 52695U 22053AR  22161.58334491  .00049651  00000+0  35687-3 0  9994
2 52695  53.2163 183.2349 0002993  23.6344 326.2003 15.73145715  3967
STARLINK-4025           
1 52696U 22053AS  22161.58334491 -.00045309  00000+0 -31937-3 0  9997
2 52696  53.2165 183.2394 0002893  18.3217 329.6730 15.73249786  3966
STARLINK-4018           
1 52697U 22053AT  22161.58334491 -.00054073  00000+0 -38220-3 0  9998
2 52697  53.2166 183.2332 0002679  20.2812 330.6411 15.73263038  3969
STARLINK-4030           
1 52698U 22053AU  22161.25002315  .00005823  00000+0  45878-4 0  9995
2 52698  53.2151 184.8841 0002409  18.7932 241.5524 15.73203154  3915
STARLINK-3987           
1 52699U 22053AV  22160.91667824  .00054538  00000+0  39131-3 0  9991
2 52699  53.2168 186.5277 0002382  20.6195 153.7039 15.73148534  3857
STARLINK-4034           
1 52700U 22053AW  22160.91667824  .00008338  00000+0  63737-4 0  9991
2 52700  53.2164 186.5318 0002329  18.8634 153.6573 15.73211904  3854
STARLINK-4003           
1 52701U 22053AX  22161.58334491  .00052172  00000+0  37386-3 0  9992
2 52701  53.2165 183.2278 0002835  18.9690 334.3824 15.73195999  3964
STARLINK-4033           
1 52702U 22053AY  22161.58334491  .00003385  00000+0  28562-4 0  9992
2 52702  53.2164 183.2315 0002949   8.1422 343.5899 15.73181146  3969
STARLINK-4020           
1 52703U 22053AZ  22161.58334491 -.00041834  00000+0 -29445-3 0  9996
2 52703  53.2160 183.2245 0002637  20.8546 334.2867 15.73247962  3961
STARLINK-3999           
1 52704U 22053BA  22161.58334491  .00049067  00000+0  35449-3 0  9992
2 52704  53.2166 183.2283 0002279  28.6190 324.7477 15.73031648  3966
STARLINK-3844           
1 52705U 22053BB  22161.58334491 -.00001483  00000+0 -61236-5 0  9990
2 52705  53.2160 183.2247 0002579  21.6605 332.9009 15.73225837  3965
STARLINK-3970           
1 52706U 22053BC  22161.25002315  .00068043  00000+0  48324-3 0  9996
2 52706  53.2169 184.8770 0002179  20.8754 243.5466 15.73298862  3912
STARLINK-4007           
1 52707U 22053BD  22160.91667824  .00004352  00000+0  35404-4 0  9990
2 52707  53.2164 186.5197 0002640  17.7734 160.1064 15.73209096  3858
STARLINK-3962           
1 52708U 22053BE  22161.58334491  .00048452  00000+0  34775-3 0  9994
2 52708  53.2164 183.2222 0002525  16.1753 340.1832 15.73191436  3961
FALCON 9 DEB            
1 52709U 22053BF  22161.12471736  .00194511  25999-4  47108-3 0  9990
2 52709  53.2038 183.0715 0013879   5.3669 354.7507 15.95799304  4735
FALCON 9 DEB            
1 52710U 22053BG  22161.11650761  .00209726  28642-4  48234-3 0  9992
2 52710  53.2034 183.0175 0014791  13.5946 346.5479 15.96692348  4734
FALCON 9 DEB            
1 52711U 22053BH  22161.34731325  .00264905  40015-4  54182-3 0  9991
2 52711  53.2035 181.6106 0010615  20.8251 339.3210 15.98835758  4778
FALCON 9 DEB            
1 52712U 22053BJ  22161.15293722  .00303707  49650-4  59335-3 0  9998
2 52712  53.2070 182.5361 0012673  26.6762 333.4919 15.99565774  4745
COSMOS 2556             
1 52713U 22054A   22161.55556942  .00000058  00000+0  97800-5 0  9995
2 52713  97.6937  75.7906 0011702 202.9095 157.1623 14.98466851  3340
2022-054B               
1 52714U 22054B   22161.42221699  .00027971  00000+0  44840-3 0  9997
2 52714  97.7015  76.9944 0149513 356.6898  66.9312 15.41276464  3401
2022-056A               
1 52716U 22056A   22161.51322975  .00000127  00000+0  68830-4 0  9990
2 52716  86.0006 310.9114 0017974 236.9912 122.9551 14.03850139  2968
2022-056B               
1 52717U 22056B   22161.55593508 -.00496791  00000+0 -40444+0 0  9991
2 52717  86.0037 310.9394 0024144 282.8810  76.9735 13.92379293  2963
2022-056C               
1 52718U 22056C   22161.51376242  .00000125  00000+0  68544-4 0  9998
2 52718  86.0006 310.9110 0013084 230.1182 129.8852 14.03335211  2968
LEMUR-2-TENNYSONLILY    
1 52732U 22057A   22160.71155131  .00005360  00000+0  31998-3 0  9996
2 52732  97.5200 275.5054 0009206 204.5659 155.5134 15.11505276  2267
